{
  "type": "FeatureCollection",
  "features": [
    {
      "type": "Feature",
      "properties": {
        "name": "Coringa_Wildlife_Sanctuary_MPA",
        "zone_type": "mpa",
        "source": "Ministry of Environment, Forest and Climate Change (MoEFCC)"
      },
      "geometry": {
        "type": "Polygon",
        "coordinates": [
          [
            [82.2, 16.8],
            [82.5, 16.8],
            [82.5, 17.1],
            [82.2, 17.1],
            [82.2, 16.8]
          ]
        ]
      }
    }
  ]
}
