{
  "type": "FeatureCollection",
  "features": [
    {
      "type": "Feature",
      "properties": {
        "name": "IMBL_Official_Maritime_Boundary",
        "zone_type": "imbl",
        "source": "INCOIS/Survey of India (Official Datum)"
      },
      "geometry": {
        "type": "Polygon",
        "coordinates": [
          [
            [82.0, 16.5],
            [83.0, 16.5],
            [83.0, 17.5],
            [82.0, 17.5],
            [82.0, 16.5]
          ]
        ]
      }
    }
  ]
}
